{
    "links": {
        "self": "http://www.neowsapp.com/rest/v1/neo/3653251?api_key=iIulBulltgU6a56xZRHN4H3l9WmuAYTsLGpBGhQ2"
    },
    "id": "3653251",
    "neo_reference_id": "3653251",
    "name": "(2013 UJ5)",
    "designation": "2013 UJ5",
    "nasa_jpl_url": "http://ssd.jpl.nasa.gov/sbdb.cgi?sstr=3653251",
    "absolute_magnitude_h": 28.2,
    "estimated_diameter": {
        "kilometers": {
            "estimated_diameter_min": 0.0060891262,
            "estimated_diameter_max": 0.0136157002
        },
        "meters": {
            "estimated_diameter_min": 6.0891262211,
            "estimated_diameter_max": 13.6157001539
        },
        "miles": {
            "estimated_diameter_min": 0.0037836064,
            "estimated_diameter_max": 0.0084604012
        },
        "feet": {
            "estimated_diameter_min": 19.9774488711,
            "estimated_diameter_max": 44.6709336928
        }
    },
    "is_potentially_hazardous_asteroid": false,
    "close_approach_data": [
        {
            "close_approach_date": "2013-10-20",
            "close_approach_date_full": "2013-Oct-20 20:05",
            "epoch_date_close_approach": 1382299500000,
            "relative_velocity": {
                "kilometers_per_second": "10.884712973",
                "kilometers_per_hour": "39184.9667028637",
                "miles_per_hour": "24348.0144493433"
            },
            "miss_distance": {
                "astronomical": "0.0098522122",
                "lunar": "3.8325105458",
                "kilometers": "1473869.959908014",
                "miles": "915820.3259340332"
            },
            "orbiting_body": "Earth"
        },
        {
            "close_approach_date": "2013-10-21",
            "close_approach_date_full": "2013-Oct-21 02:49",
            "epoch_date_close_approach": 1382323740000,
            "relative_velocity": {
                "kilometers_per_second": "10.7002730622",
                "kilometers_per_hour": "38520.9830239495",
                "miles_per_hour": "23935.4408128535"
            },
            "miss_distance": {
                "astronomical": "0.0094007216",
                "lunar": "3.6568807024",
                "kilometers": "1406327.927822992",
                "miles": "873851.6533096096"
            },
            "orbiting_body": "Moon"
        }
    ],
    "orbital_data": {
        "orbit_id": "5",
        "orbit_determination_date": "2017-04-06 08:43:58",
        "first_observation_date": "2013-10-24",
        "last_observation_date": "2013-10-29",
        "data_arc_in_days": 5,
        "observations_used": 19,
        "orbit_uncertainty": "8",
        "minimum_orbit_intersection": ".0013871",
        "jupiter_tisserand_invariant": "3.320",
        "epoch_osculation": "2456594.5",
        "eccentricity": ".5943478565336877",
        "semi_major_axis": "2.315423051152722",
        "inclination": ".3271016066851081",
        "ascending_node_longitude": "191.3257841763662",
        "orbital_period": "1286.897495724271",
        "perihelion_distance": ".9392563237314104",
        "perihelion_argument": "162.1058619648749",
        "aphelion_distance": "3.691589778574033",
        "perihelion_time": "2456560.732077692072",
        "mean_anomaly": "9.4463250346232",
        "mean_motion": ".2797425600687727",
        "equinox": "J2000",
        "orbit_class": {
            "orbit_class_type": "APO",
            "orbit_class_description": "Near-Earth asteroid orbits which cross the Earth’s orbit similar to that of 1862 Apollo",
            "orbit_class_range": "a (semi-major axis) > 1.0 AU; q (perihelion) < 1.017 AU"
        }
    },
    "is_sentry_object": false
}